[Satellite]
VERSION=1.1
NAME=SUZAKU (ASTRO-EII)
NICKNAME=SUZAKU (ASTRO-EII)
TLE1=1 28773U 05025A   18020.92239277  .00000872  00000-0  39500-4 0  9999
TLE2=2 28773  31.3838 323.9114 0004508  12.3388 347.7368 15.16321556690446
